{"fetched_at":"2026-03-29T16:36:15Z","count":15609,"tles":[{"name":"STARLINK-32931","line1":"1 63199U 25048S   26087.72513427  .00024275  00000+0  88780-3 0  9994","line2":"2 63199  43.0046 337.7947 0001962 276.0838  83.9790 15.27615026 60006","category":"Starlink"}]}