{
  "norad_id": 63199,
  "name": "STARLINK-32931",
  "history": [
    {
      "epoch": "2026-03-28T17:24:11.600928",
      "apogee_km": 484.2905675664151,
      "perigee_km": 481.59786763175543,
      "latitude_deg": 33.90699501128798,
      "longitude_deg": -150.48711007996462,
      "semi_major_axis_km": 6861.081217599085,
      "eccentricity": 0.00019623,
      "inclination_deg": 43.0046,
      "raan_deg": 337.7947,
      "arg_perigee_deg": 276.0838,
      "mean_anomaly_deg": 83.979,
      "mean_motion_rev_day": 15.27615026
    }
  ]
}